{"fetched_at":"2026-07-09T07:59:47.838Z","source":"https://celestrak.org/NORAD/elements/gp.php?GROUP=spire&FORMAT=JSON","constellation":"spire","records":[{"OBJECT_NAME":"LEMUR-2-MYRA","OBJECT_ID":"2025-276EC","EPOCH":"2026-07-08T17:38:11.154048","CLASSIFICATION_TYPE":"U","MEAN_MOTION":15.00540732,"ECCENTRICITY":0.00185497,"INCLINATION":97.5215,"RA_OF_ASC_NODE":259.9118,"ARG_OF_PERICENTER":73.7991,"MEAN_ANOMALY":286.5273,"EPHEMERIS_TYPE":0,"NORAD_CAT_ID":66787,"ELEMENT_SET_NO":999,"REV_AT_EPOCH":3344,"BSTAR":0.00033554187,"MEAN_MOTION_DOT":0.00004189,"MEAN_MOTION_DDOT":0},{"OBJECT_NAME":"LEMUR-2 FIKRETDENGIZ","OBJECT_ID":"2026-004A","EPOCH":"2026-07-08T18:45:28.232928","CLASSIFICATION_TYPE":"U","MEAN_MOTION":14.88486564,"ECCENTRICITY":0.00104433,"INCLINATION":97.8024,"RA_OF_ASC_NODE":188.0099,"ARG_OF_PERICENTER":73.6588,"MEAN_ANOMALY":286.5776,"EPHEMERIS_TYPE":0,"NORAD_CAT_ID":67363,"ELEMENT_SET_NO":999,"REV_AT_EPOCH":2649,"BSTAR":0.00024954548,"MEAN_MOTION_DOT":0.00002265,"MEAN_MOTION_DDOT":0},{"OBJECT_NAME":"TWILIGHT-1 OBJECT B","OBJECT_ID":"2026-004B","EPOCH":"2026-07-08T22:48:13.243392","CLASSIFICATION_TYPE":"U","MEAN_MOTION":14.87779263,"ECCENTRICITY":0.00100613,"INCLINATION":97.8069,"RA_OF_ASC_NODE":188.1805,"ARG_OF_PERICENTER":63.6748,"MEAN_ANOMALY":296.5501,"EPHEMERIS_TYPE":0,"NORAD_CAT_ID":67364,"ELEMENT_SET_NO":999,"REV_AT_EPOCH":2652,"BSTAR":0.00015152187,"MEAN_MOTION_DOT":0.0000133,"MEAN_MOTION_DDOT":0},{"OBJECT_NAME":"LEMUR-2-MARIO-SOUSA","OBJECT_ID":"2026-004C","EPOCH":"2026-07-08T10:13:49.346976","CLASSIFICATION_TYPE":"U","MEAN_MOTION":14.88692272,"ECCENTRICITY":0.00101493,"INCLINATION":97.7999,"RA_OF_ASC_NODE":187.6551,"ARG_OF_PERICENTER":75.7007,"MEAN_ANOMALY":284.5336,"EPHEMERIS_TYPE":0,"NORAD_CAT_ID":67365,"ELEMENT_SET_NO":999,"REV_AT_EPOCH":2645,"BSTAR":0.00028573315,"MEAN_MOTION_DOT":0.00002615,"MEAN_MOTION_DDOT":0},{"OBJECT_NAME":"LEMUR-2-SONNENBLUME","OBJECT_ID":"2026-004E","EPOCH":"2026-07-08T23:10:37.500384","CLASSIFICATION_TYPE":"U","MEAN_MOTION":14.88433763,"ECCENTRICITY":0.00096572,"INCLINATION":97.7994,"RA_OF_ASC_NODE":188.1619,"ARG_OF_PERICENTER":75.6747,"MEAN_ANOMALY":284.5541,"EPHEMERIS_TYPE":0,"NORAD_CAT_ID":67367,"ELEMENT_SET_NO":999,"REV_AT_EPOCH":2653,"BSTAR":0.0001770761,"MEAN_MOTION_DOT":0.00001589,"MEAN_MOTION_DDOT":0},{"OBJECT_NAME":"LEMUR-2-WOBLER","OBJECT_ID":"2026-004F","EPOCH":"2026-07-08T22:56:39.178464","CLASSIFICATION_TYPE":"U","MEAN_MOTION":14.88670933,"ECCENTRICITY":0.00098675,"INCLINATION":97.8049,"RA_OF_ASC_NODE":188.2967,"ARG_OF_PERICENTER":67.3819,"MEAN_ANOMALY":292.8441,"EPHEMERIS_TYPE":0,"NORAD_CAT_ID":67368,"ELEMENT_SET_NO":999,"REV_AT_EPOCH":2653,"BSTAR":0.00026776253,"MEAN_MOTION_DOT":0.00002446,"MEAN_MOTION_DDOT":0},{"OBJECT_NAME":"LEMUR-2-GRAM-E-SUE","OBJECT_ID":"2026-004H","EPOCH":"2026-07-08T22:44:41.723232","CLASSIFICATION_TYPE":"U","MEAN_MOTION":14.88571655,"ECCENTRICITY":0.00088216,"INCLINATION":97.7979,"RA_OF_ASC_NODE":188.1606,"ARG_OF_PERICENTER":78.1086,"MEAN_ANOMALY":282.1119,"EPHEMERIS_TYPE":0,"NORAD_CAT_ID":67370,"ELEMENT_SET_NO":999,"REV_AT_EPOCH":2653,"BSTAR":0.00019485034,"MEAN_MOTION_DOT":0.0000176,"MEAN_MOTION_DDOT":0},{"OBJECT_NAME":"LEMUR-2-KATIE","OBJECT_ID":"2026-004AA","EPOCH":"2026-07-08T07:22:28.717248","CLASSIFICATION_TYPE":"U","MEAN_MOTION":14.90210933,"ECCENTRICITY":0.00040332,"INCLINATION":97.8044,"RA_OF_ASC_NODE":188.0585,"ARG_OF_PERICENTER":49.127,"MEAN_ANOMALY":311.0297,"EPHEMERIS_TYPE":0,"NORAD_CAT_ID":67387,"ELEMENT_SET_NO":999,"REV_AT_EPOCH":2645,"BSTAR":0.000241156,"MEAN_MOTION_DOT":0.00002282,"MEAN_MOTION_DDOT":0},{"OBJECT_NAME":"LEMUR-2-HCS-BAZUS","OBJECT_ID":"2026-004AB","EPOCH":"2026-07-08T21:50:25.703808","CLASSIFICATION_TYPE":"U","MEAN_MOTION":14.90240247,"ECCENTRICITY":0.00034297,"INCLINATION":97.8033,"RA_OF_ASC_NODE":188.6331,"ARG_OF_PERICENTER":48.3444,"MEAN_ANOMALY":311.8067,"EPHEMERIS_TYPE":0,"NORAD_CAT_ID":67388,"ELEMENT_SET_NO":999,"REV_AT_EPOCH":2654,"BSTAR":0.00013573416,"MEAN_MOTION_DOT":0.00001261,"MEAN_MOTION_DDOT":0}]}
